{
 "type": "FeatureCollection",
 "name": "UB City shadow projection 2026-10-01T11:00:00+05:30",
 "crs": {
  "type": "name",
  "properties": {
   "name": "EPSG:4326"
  }
 },
 "metadata": {
  "timestamp": "2026-10-01T11:00:00+05:30",
  "local_time": "11:00",
  "date_local": "2026-10-01",
  "timezone": "Asia/Kolkata",
  "solar_azimuth_deg": 132.038002,
  "solar_elevation_deg": 66.378663,
  "solar_zenith_deg": 23.621337,
  "sun_above_horizon": true,
  "shadow_emitted": true,
  "shadow_azimuth_deg": 312.038002,
  "active_building_shadows": 5,
  "total_shadow_area_m2": 16229.671,
  "total_shadow_area_in_study_area_m2": 16144.449,
  "max_shadow_length_m": 26.24,
  "study_area_m2": 84119.1,
  "shadow_coverage_percent": 19.1924,
  "truncated": false,
  "max_shadow_length_m_limit": 1000.0,
  "min_shadow_elevation_deg": 0.1,
  "occlusion": {
   "per_building": {
    "osm:way/107240643": {
     "samples": 95,
     "shaded_samples": 0,
     "shaded_fraction": 0.0,
     "shaded_by": {}
    },
    "osm:way/364528078": {
     "samples": 69,
     "shaded_samples": 2,
     "shaded_fraction": 0.029,
     "shaded_by": {
      "osm:way/1125334909": 2
     }
    },
    "osm:way/373431282": {
     "samples": 94,
     "shaded_samples": 1,
     "shaded_fraction": 0.0106,
     "shaded_by": {
      "osm:way/1125334910": 1
     }
    },
    "osm:way/1125334909": {
     "samples": 80,
     "shaded_samples": 14,
     "shaded_fraction": 0.175,
     "shaded_by": {
      "osm:way/1125334910": 14
     }
    },
    "osm:way/1125334910": {
     "samples": 85,
     "shaded_samples": 0,
     "shaded_fraction": 0.0,
     "shaded_by": {}
    }
   },
   "method": "sun-vector ray test against other buildings' shadow volumes",
   "samples_per_prism": 12
  },
  "computed_in_crs": "EPSG:32643",
  "exported_in_crs": "EPSG:4326"
 },
 "features": [
  {
   "type": "Feature",
   "id": "osm:way/107240643@11:00",
   "geometry": {
    "type": "Polygon",
    "coordinates": [
     [
      [
       77.59468333414114,
       12.972503366463778
      ],
      [
       77.59467148125168,
       12.972514063364788
      ],
      [
       77.59469443063969,
       12.972626355037155
      ],
      [
       77.59468478120122,
       12.972635063383477
      ],
      [
       77.59471228115888,
       12.972758263409057
      ],
      [
       77.59472538116873,
       12.972755463414918
      ],
      [
       77.59473298115701,
       12.972789563421996
      ],
      [
       77.59472238114094,
       12.972808363418952
      ],
      [
       77.5947157811241,
       12.972834163418504
      ],
      [
       77.59471688111186,
       12.972860663421747
      ],
      [
       77.59471908110197,
       12.972883863425167
      ],
      [
       77.59472498109474,
       12.972906463430258
      ],
      [
       77.59473668108991,
       12.972931863438365
      ],
      [
       77.59475308108937,
       12.972954763448419
      ],
      [
       77.59476288109079,
       12.972964863454061
      ],
      [
       77.59477588109645,
       12.972970463460745
      ],
      [
       77.59479138110655,
       12.97297036346801
      ],
      [
       77.59480538111873,
       12.972963963473926
      ],
      [
       77.59494618126286,
       12.972855463528878
      ],
      [
       77.59496458127606,
       12.972852863537254
      ],
      [
       77.59499998131216,
       12.972825863551096
      ],
      [
       77.59502117529703,
       12.972806736537551
      ],
      [
       77.5951748814483,
       12.972778963628397
      ],
      [
       77.5953231,
       12.972645199999999
      ],
      [
       77.5953737,
       12.972573599999999
      ],
      [
       77.5953002,
       12.972186799999998
      ],
      [
       77.5952382,
       12.972197999999999
      ],
      [
       77.5951996,
       12.9719947
      ],
      [
       77.5949764,
       12.972034900000002
      ],
      [
       77.594955,
       12.971921899999998
      ],
      [
       77.5947672,
       12.971999000000002
      ],
      [
       77.59461898140384,
       12.972132763300928
      ],
      [
       77.59466596268346,
       12.972362806668373
      ],
      [
       77.59465648131162,
       12.97237136334307
      ],
      [
       77.59468333414114,
       12.972503366463778
      ]
     ]
    ]
   },
   "properties": {
    "building_id": "osm:way/107240643",
    "timestamp": "2026-10-01T11:00:00+05:30",
    "local_time": "11:00",
    "date_local": "2026-10-01",
    "timezone": "Asia/Kolkata",
    "solar_azimuth_deg": 132.038002,
    "solar_elevation_deg": 66.378663,
    "solar_zenith_deg": 23.621337,
    "sun_above_horizon": true,
    "shadow_azimuth_deg": 312.038002,
    "shadow_direction": "NW",
    "height_m": 50.0,
    "height_method": "OSM_exact",
    "shadow_area_m2": 6334.713,
    "shadow_area_in_study_area_m2": 6249.491,
    "shadow_perimeter_m": 335.99,
    "max_shadow_length_m": 21.867,
    "max_shadow_length_natural_m": 21.867,
    "truncated_at_max_length": false,
    "dominant_direction": {
     "azimuth_deg": 99.973,
     "length_m": 38.077,
     "angle_from_north_deg": 99.973,
     "description": "E"
    },
    "prism_count": 1,
    "crs_calculated_in": "EPSG:32643",
    "crs_exported_in": "EPSG:4326"
   }
  },
  {
   "type": "Feature",
   "id": "osm:way/364528078@11:00",
   "geometry": {
    "type": "Polygon",
    "coordinates": [
     [
      [
       77.5962365351031,
       12.972118778450394
      ],
      [
       77.5961055,
       12.9721757
      ],
      [
       77.59592763860157,
       12.972336216730232
      ],
      [
       77.5960143385579,
       12.97252581680249
      ],
      [
       77.59633453888812,
       12.97238681696572
      ],
      [
       77.59636463891907,
       12.972373916981084
      ],
      [
       77.59638883894414,
       12.972363216993397
      ],
      [
       77.5964058389605,
       12.972357817002308
      ],
      [
       77.59643091994502,
       12.972335181795984
      ],
      [
       77.59645653901167,
       12.972337717028386
      ],
      [
       77.59649343904667,
       12.972326917047841
      ],
      [
       77.59652333908384,
       12.972303117061747
      ],
      [
       77.5967012,
       12.9721426
      ],
      [
       77.5967195,
       12.9721095
      ],
      [
       77.5967234,
       12.972072099999998
      ],
      [
       77.5967123,
       12.972036100000002
      ],
      [
       77.5966879,
       12.972007
      ],
      [
       77.5966539,
       12.971989200000001
      ],
      [
       77.59664629804861,
       12.97198843697915
      ],
      [
       77.5966685,
       12.971968400000002
      ],
      [
       77.5966064,
       12.971832599999999
      ],
      [
       77.5964724,
       12.971890699999998
      ],
      [
       77.5963982,
       12.971922899999997
      ],
      [
       77.59622033897709,
       12.972083416863917
      ],
      [
       77.5962365351031,
       12.972118778450394
      ]
     ]
    ]
   },
   "properties": {
    "building_id": "osm:way/364528078",
    "timestamp": "2026-10-01T11:00:00+05:30",
    "local_time": "11:00",
    "date_local": "2026-10-01",
    "timezone": "Asia/Kolkata",
    "solar_azimuth_deg": 132.038002,
    "solar_elevation_deg": 66.378663,
    "solar_zenith_deg": 23.621337,
    "sun_above_horizon": true,
    "shadow_azimuth_deg": 312.038002,
    "shadow_direction": "NW",
    "height_m": 60.0,
    "height_method": "OSM_exact",
    "shadow_area_m2": 3096.826,
    "shadow_area_in_study_area_m2": 3096.826,
    "shadow_perimeter_m": 248.97,
    "max_shadow_length_m": 26.24,
    "max_shadow_length_natural_m": 26.24,
    "truncated_at_max_length": false,
    "dominant_direction": {
     "azimuth_deg": 220.786,
     "length_m": 20.282,
     "angle_from_north_deg": 220.786,
     "description": "SW"
    },
    "prism_count": 1,
    "crs_calculated_in": "EPSG:32643",
    "crs_exported_in": "EPSG:4326"
   }
  },
  {
   "type": "Feature",
   "id": "osm:way/373431282@11:00",
   "geometry": {
    "type": "Polygon",
    "coordinates": [
     [
      [
       77.59527893831697,
       12.971961616318524
      ],
      [
       77.595300358813,
       12.97200786312153
      ],
      [
       77.5952863382882,
       12.972020516329966
      ],
      [
       77.5953561382543,
       12.972171016387863
      ],
      [
       77.59538663828583,
       12.972157616403392
      ],
      [
       77.59540823827544,
       12.972204016421289
      ],
      [
       77.59546313833198,
       12.972180316449293
      ],
      [
       77.595556638429,
       12.972138716496838
      ],
      [
       77.59559883845675,
       12.972147316521676
      ],
      [
       77.59566033812334,
       12.97209181432288
      ],
      [
       77.59570943858813,
       12.972069716574403
      ],
      [
       77.5958873,
       12.971909199999999
      ],
      [
       77.59588120000001,
       12.9718969
      ],
      [
       77.5958395,
       12.971802100000001
      ],
      [
       77.595855,
       12.971760099999997
      ],
      [
       77.5958147,
       12.971750799999997
      ],
      [
       77.5958219,
       12.971651999999999
      ],
      [
       77.5957336,
       12.971694999999997
      ],
      [
       77.5956153,
       12.971652599999997
      ],
      [
       77.5954374385271,
       12.971813116389487
      ],
      [
       77.59543313669,
       12.971822455641727
      ],
      [
       77.59527893831697,
       12.971961616318524
      ]
     ]
    ]
   },
   "properties": {
    "building_id": "osm:way/373431282",
    "timestamp": "2026-10-01T11:00:00+05:30",
    "local_time": "11:00",
    "date_local": "2026-10-01",
    "timezone": "Asia/Kolkata",
    "solar_azimuth_deg": 132.038002,
    "solar_elevation_deg": 66.378663,
    "solar_zenith_deg": 23.621337,
    "sun_above_horizon": true,
    "shadow_azimuth_deg": 312.038002,
    "shadow_direction": "NW",
    "height_m": 60.0,
    "height_method": "OSM_exact",
    "shadow_area_m2": 2398.172,
    "shadow_area_in_study_area_m2": 2398.172,
    "shadow_perimeter_m": 206.627,
    "max_shadow_length_m": 26.24,
    "max_shadow_length_natural_m": 26.24,
    "truncated_at_max_length": false,
    "dominant_direction": {
     "azimuth_deg": 42.038,
     "length_m": 20.448,
     "angle_from_north_deg": 42.038,
     "description": "NE"
    },
    "prism_count": 1,
    "crs_calculated_in": "EPSG:32643",
    "crs_exported_in": "EPSG:4326"
   }
  },
  {
   "type": "Feature",
   "id": "osm:way/1125334909@11:00",
   "geometry": {
    "type": "Polygon",
    "coordinates": [
     [
      [
       77.5964242,
       12.9717853
      ],
      [
       77.5962463390779,
       12.971945816861579
      ],
      [
       77.5962945390536,
       12.972051216901749
      ],
      [
       77.59642853919176,
       12.971993116970062
      ],
      [
       77.5966064,
       12.971832599999999
      ],
      [
       77.5965581,
       12.971727099999997
      ],
      [
       77.5964242,
       12.9717853
      ]
     ]
    ]
   },
   "properties": {
    "building_id": "osm:way/1125334909",
    "timestamp": "2026-10-01T11:00:00+05:30",
    "local_time": "11:00",
    "date_local": "2026-10-01",
    "timezone": "Asia/Kolkata",
    "solar_azimuth_deg": 132.038002,
    "solar_elevation_deg": 66.378663,
    "solar_zenith_deg": 23.621337,
    "sun_above_horizon": true,
    "shadow_azimuth_deg": 312.038002,
    "shadow_direction": "NW",
    "height_m": 60.0,
    "height_method": "OSM_exact",
    "shadow_area_m2": 656.006,
    "shadow_area_in_study_area_m2": 656.006,
    "shadow_perimeter_m": 109.873,
    "max_shadow_length_m": 26.24,
    "max_shadow_length_natural_m": 26.24,
    "truncated_at_max_length": false,
    "dominant_direction": {
     "azimuth_deg": 222.038,
     "length_m": 8.623,
     "angle_from_north_deg": 222.038,
     "description": "SW"
    },
    "prism_count": 1,
    "crs_calculated_in": "EPSG:32643",
    "crs_exported_in": "EPSG:4326"
   }
  },
  {
   "type": "Feature",
   "id": "osm:way/1125334910@11:00",
   "geometry": {
    "type": "Polygon",
    "coordinates": [
     [
      [
       77.59579533887278,
       12.971697716576875
      ],
      [
       77.59583023885638,
       12.971772016605712
      ],
      [
       77.59591413881063,
       12.971961416676363
      ],
      [
       77.59619803910209,
       12.971840416821353
      ],
      [
       77.5962463390779,
       12.971945816861579
      ],
      [
       77.59638023921602,
       12.971887616929823
      ],
      [
       77.5965581,
       12.971727099999997
      ],
      [
       77.59652673643073,
       12.971658500273156
      ],
      [
       77.5966566,
       12.971541300000002
      ],
      [
       77.5966095,
       12.971347299999998
      ],
      [
       77.5963562,
       12.9714591
      ],
      [
       77.596322,
       12.971385499999998
      ],
      [
       77.5959732,
       12.971537199999998
      ],
      [
       77.59579533887278,
       12.971697716576875
      ]
     ]
    ]
   },
   "properties": {
    "building_id": "osm:way/1125334910",
    "timestamp": "2026-10-01T11:00:00+05:30",
    "local_time": "11:00",
    "date_local": "2026-10-01",
    "timezone": "Asia/Kolkata",
    "solar_azimuth_deg": 132.038002,
    "solar_elevation_deg": 66.378663,
    "solar_zenith_deg": 23.621337,
    "sun_above_horizon": true,
    "shadow_azimuth_deg": 312.038002,
    "shadow_direction": "NW",
    "height_m": 60.0,
    "height_method": "OSM_exact",
    "shadow_area_m2": 3743.954,
    "shadow_area_in_study_area_m2": 3743.954,
    "shadow_perimeter_m": 276.776,
    "max_shadow_length_m": 26.24,
    "max_shadow_length_natural_m": 26.24,
    "truncated_at_max_length": false,
    "dominant_direction": {
     "azimuth_deg": 23.32,
     "length_m": 26.688,
     "angle_from_north_deg": 23.32,
     "description": "NNE"
    },
    "prism_count": 1,
    "crs_calculated_in": "EPSG:32643",
    "crs_exported_in": "EPSG:4326"
   }
  }
 ]
}